[{"OBJECT_NAME":"SHIYAN-5 (SY-5)","OBJECT_ID":"2013-068A","EPOCH":"2026-03-09T23:05:17.847168","MEAN_MOTION":14.43628019,"ECCENTRICITY":0.00128666,"INCLINATION":98.0874,"RA_OF_ASC_NODE":305.1507,"ARG_OF_PERICENTER":245.0461,"MEAN_ANOMALY":114.9394,"EPHEMERIS_TYPE":0,"CLASSIFICATION_TYPE":"U","NORAD_CAT_ID":39455,"ELEMENT_SET_NO":999,"REV_AT_EPOCH":64731,"BSTAR":0.00021006914,"MEAN_MOTION_DOT":6.72e-6,"MEAN_MOTION_DDOT":0},{"OBJECT_NAME":"SL-8 R\/B","OBJECT_ID":"1987-049B","EPOCH":"2026-03-09T15:09:18.931104","MEAN_MOTION":14.37955732,"ECCENTRICITY":0.0022558,"INCLINATION":74.0411,"RA_OF_ASC_NODE":128.3969,"ARG_OF_PERICENTER":238.8235,"MEAN_ANOMALY":121.0707,"EPHEMERIS_TYPE":0,"CLASSIFICATION_TYPE":"U","NORAD_CAT_ID":18096,"ELEMENT_SET_NO":999,"REV_AT_EPOCH":2946,"BSTAR":0.00010302,"MEAN_MOTION_DOT":2.86e-6,"MEAN_MOTION_DDOT":0}]
